0 FENGYUN 1C DEB
1 33632U 99025DDR 18348.15287856 +.00001200 +00000-0 +32070-3 0  9996
2 33632 099.0396 247.6184 0052002 247.1087 112.4610 14.49616624559237
0 FENGYUN 1C DEB
1 33632U 99025DDR 18349.18823051  .00001161  00000-0  31072-3 0  9990
2 33632  99.0398 248.7284 0051904 243.9409 115.6434 14.49619095560140
0 FENGYUN 1C DEB
1 33639U 99025DDY 18349.38173298  .00000575  00000-0  28457-3 0  9991
2 33639  98.8548  42.5545 0068416 138.5939 222.0451 14.19990154551567
0 FENGYUN 1C DEB
1 33643U 99025DEC 18349.20775514  .00000649  00000-0  85183-4 0  9998
2 33643  99.1184 141.2813 0155909 313.9862  44.8576 14.76809088591778
0 FENGYUN 1C DEB
1 33643U 99025DEC 18348.39472573 +.00000661 +00000-0 +86581-4 0  9993
2 33643 099.1183 140.3630 0155916 316.5318 042.3682 14.76807903591671
0 FENGYUN 1C DEB
1 33645U 99025DEE 18348.59559521 +.00000463 +00000-0 +11821-3 0  9990
2 33645 099.5597 282.7008 0356028 215.9515 141.7232 14.24646063285322
0 FENGYUN 1C DEB
1 33645U 99025DEE 18349.29793476  .00000465  00000-0  11869-3 0  9991
2 33645  99.5599 283.4667 0355970 213.9503 143.8430 14.24646980555076
0 FENGYUN 1C DEB
1 33646U 99025DEF 18348.96220113 +.00000460 +00000-0 +36567-3 0  9995
2 33646 098.5802 046.6673 0122914 064.0245 059.9887 13.92231770364158
0 FENGYUN 1C DEB
1 33646U 99025DEF 18348.96220113  .00000460  00000-0  36567-3 0  9995
2 33646  98.5802  46.6673 0122914  64.0245  59.9887 13.92231770570652
0 FENGYUN 1C DEB
1 33648U 99025DEH 18348.86223358 +.00000060 +00000-0 +56907-4 0  9997
2 33648 098.8500 014.8442 0069400 216.8771 142.7617 14.10622512283487
0 FENGYUN 1C DEB
1 33651U 99025DEL 18348.23847168 +.00000034 +00000-0 +35576-4 0  9993
2 33651 098.9785 005.4246 0119740 180.3995 179.7104 14.18605921280268
0 FENGYUN 1C DEB
1 33651U 99025DEL 18349.29645267  .00000038  00000-0  37493-4 0  9990
2 33651  98.9786   6.4952 0119791 177.3828 182.7999 14.18606124572784
0 FENGYUN 1C DEB
1 33655U 99025DEQ 18348.37832504 +.00000511 +00000-0 +12820-3 0  9996
2 33655 098.8384 206.7785 0108608 303.5649 055.5211 14.52706313592100
0 FENGYUN 1C DEB
1 33660U 99025DEV 18349.43654229  .00000026  00000-0  50311-4 0  9995
2 33660  98.6311  58.0927 0112526  72.8908 344.3478 13.89144211560659
0 FENGYUN 1C DEB
1 33661U 99025DEW 18349.47250267  .00000229  00000-0  25915-3 0  9990
2 33661  98.3729 166.6072 0245351 126.1848 264.6594 13.65978140536898
0 FENGYUN 1C DEB
1 33666U 99025DFB 18349.90397191  .00001333  00000-0  26451-3 0  9994
2 33666  98.8764 226.4858 0080358 278.9387 143.6592 14.62146281589659
0 FENGYUN 1C DEB
1 33668U 99025DFD 18349.47197810  .00000526  00000-0  72721-4 0  9999
2 33668  99.0053  66.9640 0181630 339.9923  19.4222 14.72862847582387
0 FENGYUN 1C DEB
1 33668U 99025DFD 18348.45297530 +.00000554 +00000-0 +76026-4 0  9999
2 33668 099.0053 065.8344 0181697 343.1850 016.3380 14.72861753581560
0 FENGYUN 1C DEB
1 33673U 99025DFJ 18349.15814995  .00000134  00000-0  13558-3 0  9997
2 33673  99.3538 318.8139 0112153 272.3643 149.9100 13.91609530544378
0 FENGYUN 1C DEB
1 33676U 99025DFM 18348.46021156 +.00000023 +00000-0 +23039-4 0  9995
2 33676 099.0346 223.0859 0211420 328.6885 153.0137 14.32628184287025
0 FENGYUN 1C DEB
1 33678U 99025DFP 18348.88401238 +.00000024 +00000-0 +20998-4 0  9998
2 33678 099.0338 233.4491 0236562 196.6567 162.6751 14.35868659583549
0 FENGYUN 1C DEB
1 33679U 99025DFQ 18349.70677834  .00000572  00000-0  92515-4 0  9990
2 33679  99.3747  47.9257 0327724  71.7568 291.8992 14.46089692570182
0 FENGYUN 1C DEB
1 33682U 99025DFT 18349.85536740  .00000578  00000-0  34139-3 0  9993
2 33682  99.4191 215.9445 0036901  34.0623 326.2905 14.11839468560513
0 FENGYUN 1C DEB
1 33683U 99025DFU 18349.10045425  .00001690  00000-0  52899-3 0  9996
2 33683  98.3100 217.0283 0074156  14.6594 345.6722 14.40360976560988
0 FENGYUN 1C DEB
1 33686U 99025DFX 18348.92060428  .00001586  00000-0  28879-3 0  9993
2 33686  98.8610 249.3423 0063144 299.3189  60.1713 14.66467699592626
0 FENGYUN 1C DEB
1 33686U 99025DFX 18348.92060428 +.00001586 +00000-0 +28879-3 0  9993
2 33686 098.8610 249.3423 0063144 299.3189 060.1713 14.66467699315191
0 FENGYUN 1C DEB
1 33688U 99025DFZ 18348.50157170 +.00000745 +00000-0 +36551-3 0  9992
2 33688 099.3656 234.9956 0079033 350.7704 009.2013 14.19490317550592
0 FENGYUN 1C DEB
1 33688U 99025DFZ 18349.48837671  .00000748  00000-0  36683-3 0  9990
2 33688  99.3655 236.0388 0079027 348.0405  11.8891 14.19492089551743
0 FENGYUN 1C DEB
1 33692U 99025DGD 18349.67692339  .00003597  00000-0  66850-3 0  9990
2 33692  99.1203 282.5044 0021712 179.2873 300.2490 14.65741981561415
0 FENGYUN 1C DEB
1 33693U 99025DGE 18349.20718410  .00000379  00000-0  43048-3 0  9998
2 33693  99.3592 232.7723 0236744 143.6904 345.0992 13.64806781533931
0 FENGYUN 1C DEB
1 33699U 99025DGL 18349.14757123  .00005660  00000-0  13059-2 0  9997
2 33699  98.4693 313.9767 0063187   0.7142  56.0273 14.54440392579466
0 FENGYUN 1C DEB
1 33700U 99025DGM 18349.07513109  .00001635  00000-0  20373-3 0  9992
2 33700  99.1070  97.4605 0107164 178.9461 181.1994 14.80243196582889
0 FENGYUN 1C DEB
1 33706U 99025DGT 18349.81848948  .00001315  00000-0  32136-3 0  9997
2 33706  98.9628 198.7365 0124304 115.3331 246.0796 14.49889984575031
0 FENGYUN 1C DEB
1 33708U 99025DGV 18348.93034830 +.00002289 +00000-0 +32425-3 0  9990
2 33708 099.4646 234.4474 0066922 026.3295 334.1286 14.76827977596680
0 FENGYUN 1C DEB
1 33708U 99025DGV 18348.93034830  .00002289  00000-0  32425-3 0  9990
2 33708  99.4646 234.4474 0066922  26.3295 334.1286 14.76827977600709
0 FENGYUN 1C DEB
1 33710U 99025DGX 18349.01575077  .00000625  00000-0  42128-3 0  9999
2 33710  99.0483  67.3675 0056424  83.7035 277.0554 14.03475393560471
0 FENGYUN 1C DEB
1 33711U 99025DGY 18348.92800718 +.00000042 +00000-0 +60702-4 0  9994
2 33711 099.3120 331.8720 0105378 174.4641 241.0464 13.96368191562388
0 FENGYUN 1C DEB
1 33713U 99025DHA 18349.02327515  .00000810  00000-0  12365-3 0  9991
2 33713  99.0610  46.6001 0172773 211.3571 147.7238 14.67797584576714
0 FENGYUN 1C DEB
1 33714U 99025DHB 18349.55361596  .00001228  00000-0  40415-3 0  9998
2 33714  99.9130 257.2338 0057557 299.4092  60.1353 14.39529220572655
0 FENGYUN 1C DEB
1 33714U 99025DHB 18348.51103533 +.00001243 +00000-0 +40885-3 0  9996
2 33714 099.9130 256.0291 0057640 302.3475 057.2136 14.39526425273841
0 FENGYUN 1C DEB
1 33719U 99025DHG 18348.90613692 +.00000234 +00000-0 +14343-3 0  9995
2 33719 099.0027 011.6330 0035460 166.6206 314.3139 14.14930602558216
0 FENGYUN 1C DEB
1 33720U 99025DHH 18349.39005966  .00000205  00000-0  86279-4 0  9996
2 33720  98.4753  42.2684 0091914 134.7234 287.7178 14.33099507584128
0 FENGYUN 1C DEB
1 33721U 99025DHJ 18348.23759016 +.00000764 +00000-0 +13897-3 0  9996
2 33721 098.7828 270.7202 0133759 084.4454 277.1984 14.63814420600970
0 FENGYUN 1C DEB
1 33722U 99025DHK 18349.06780059  .00000305  00000-0  15887-3 0  9992
2 33722  98.8031  28.1860 0170903  17.0164 343.6645 14.14247575560116
0 FENGYUN 1C DEB
1 33724U 99025DHM 18348.32129896 +.00000133 +00000-0 +90520-4 0  9995
2 33724 098.8249 018.8817 0028462 306.1565 114.1469 14.15360395577813
0 FENGYUN 1C DEB
1 33724U 99025DHM 18349.88938921  .00000138  00000-0  92982-4 0  9993
2 33724  98.8248  20.4333 0028462 301.5507 184.1729 14.15360925585824
0 FENGYUN 1C DEB
1 33728U 99025DHR 18349.22379896  .00000228  00000-0  36557-4 0  9991
2 33728  98.9601  80.2824 0206056 291.3494  96.8905 14.70667756607079
0 FENGYUN 1C DEB
1 33728U 99025DHR 18348.20339632 +.00000230 +00000-0 +36813-4 0  9990
2 33728 098.9601 079.1604 0206068 294.5359 094.4495 14.70667066605980
0 FENGYUN 1C DEB
1 33733U 99025DHW 18349.50230182  .00000914  00000-0  56260-3 0  9996
2 33733  99.1889 344.9942 0109008 136.9632  17.0517 14.05242757543985
0 FENGYUN 1C DEB
1 33736U 99025DHZ 18349.43602863  .00001366  00000-0  42428-3 0  9993
2 33736  99.6963 165.8839 0044506 248.7552 110.8877 14.42467498553024
0 FENGYUN 1C DEB
1 33737U 99025DJA 18348.60181639 +.00000146 +00000-0 +12557-3 0  9990
2 33737 098.3662 359.4764 0138533 243.9269 238.9484 13.95660590530409
0 FENGYUN 1C DEB
1 33739U 99025DJC 18349.17676983  .00002037  00000-0  43896-3 0  9997
2 33739  98.9623 250.9796 0059285 119.1799 241.5347 14.58599322553960
0 FENGYUN 1C DEB
1 33740U 99025DJD 18348.90602113 -.00000030 +00000-0 +80768-5 0  9996
2 33740 098.9314 015.3701 0001791 159.6551 200.4691 14.11090747541062
0 FENGYUN 1C DEB
1 33741U 99025DJE 18349.10187415  .00000564  00000-0  41805-3 0  9991
2 33741  98.5502  39.6002 0146094  28.5858 332.3217 13.93934828520591
0 FENGYUN 1C DEB
1 33745U 99025DJJ 18348.33505742 +.00000421 +00000-0 +26265-3 0  9991
2 33745 099.0364 302.6938 0063238 261.1692 098.2314 14.09419466299084
0 FENGYUN 1C DEB
1 33748U 99025DJM 18348.35596324 +.00000369 +00000-0 +18923-3 0  9995
2 33748 098.8298 027.7543 0043147 093.2095 267.4019 14.20871500550227
0 FENGYUN 1C DEB
1 33748U 99025DJM 18349.34182774  .00000361  00000-0  18566-3 0  9990
2 33748  98.8297  28.7392 0043119  90.4358 270.1760 14.20872320550325
0 NSS 9
1 33749U 09008A   18349.78133323  .00000085  00000-0  00000+0 0  9990
2 33749   0.0175 349.1824 0002219 267.9530 291.6068  1.00270844 36083
0 NSS 9
1 33749U 09008A   18348.76298264 +.00000083 +00000-0 +00000-0 0  9992
2 33749 000.0183 344.2962 0002130 271.6231 285.2171 01.00270211036030
0 EUTE HOT BIRD 13D (HB10)
1 33750U 09008B   18348.89355016 +.00000167 +00000-0 +00000-0 0  9990
2 33750 000.0401 002.5762 0004213 248.8235 186.8869 01.00270119035969
0 EUTE HOT BIRD 13D (HB10)
1 33750U 09008B   18349.17896319  .00000168  00000-0  00000+0 0  9998
2 33750   0.0403   3.2465 0004233 248.6523 289.4160  1.00270230 36115
